ONEWEB-0427             
1 50499U 21132AG  24127.76264638 -.00000020  00000+0 -83113-4 0  9997
2 50499  87.9117 129.0187 0002050  81.6729 278.4635 13.18685019119941
ONEWEB-0429             
1 50500U 21132AH  24127.90175614 -.00000113  00000+0 -31901-3 0  9991
2 50500  87.9122 128.9944 0002016  90.7837 269.3526 13.18685044119937
ONEWEB-0430             
1 50501U 21132AJ  24127.73892283 -.00000034  00000+0 -11910-3 0  9991
2 50501  87.9119 129.0329 0002475  95.2438 264.8977 13.18684234119951
ONEWEB-0432             
1 50502U 21132AK  24127.92230403 -.00000002  00000+0 -37238-4 0  9990
2 50502  87.9118 128.9897 0002505  86.0855 274.0564 13.18685595119938
ONEWEB-0450             
1 50504U 21132AM  24127.75170395  .00000037  00000+0  61509-4 0  9990
2 50504  87.9121 129.0394 0002160  99.7132 260.4244 13.18684273119930
ONEWEB-0410             
1 51622U 22012A   24127.78226873 -.00000003  00000+0 -39589-4 0  9994
2 51622  87.9179 159.3782 0002072  48.3904 311.7404 13.17648757112118
ONEWEB-0411             
1 51623U 22012B   24127.87861468 -.00000334  00000+0 -99265-3 0  9993
2 51623  87.8975 189.5636 0002827 101.1561 258.9885 13.10369630108270
